[{"OBJECT_NAME":"XINGYUN-2 02","OBJECT_ID":"2020-028B","EPOCH":"2026-03-10T00:08:18.521088","MEAN_MOTION":15.11086378,"ECCENTRICITY":0.0009258,"INCLINATION":97.5114,"RA_OF_ASC_NODE":76.7595,"ARG_OF_PERICENTER":249.9829,"MEAN_ANOMALY":110.0404,"EPHEMERIS_TYPE":0,"CLASSIFICATION_TYPE":"U","NORAD_CAT_ID":45603,"ELEMENT_SET_NO":999,"REV_AT_EPOCH":31985,"BSTAR":0.00013296102,"MEAN_MOTION_DOT":2.163e-5,"MEAN_MOTION_DDOT":0},{"OBJECT_NAME":"STARLINK-5374","OBJECT_ID":"2023-046BE","EPOCH":"2026-03-09T22:00:01.999584","MEAN_MOTION":15.09222648,"ECCENTRICITY":8.207e-5,"INCLINATION":42.9999,"RA_OF_ASC_NODE":144.4517,"ARG_OF_PERICENTER":256.2412,"MEAN_ANOMALY":307.4218,"EPHEMERIS_TYPE":0,"CLASSIFICATION_TYPE":"U","NORAD_CAT_ID":56144,"ELEMENT_SET_NO":999,"REV_AT_EPOCH":567,"BSTAR":0.001655471,"MEAN_MOTION_DOT":0.00026669,"MEAN_MOTION_DDOT":0}]
